#RA= 56.8517, DEC= 7.6030
#Sector  5 (2018-Nov-15 to 2018-Dec-11, in cycle 1): observed in camera 1.
#
#*******************************************************************************
#Ephemeris / WWW_USER Wed Dec  9 10:59:52 2020 Pasadena, USA      / Horizons    
#*******************************************************************************
#Target body name: 90377 Sedna (2003 VB12)         {source: JPL#31}
#Center body name: TESS (spacecraft) (-95)         {source: TESS_MERGED}
#Center-site name: BODYCENTRIC
#*******************************************************************************
#Start time      : A.D. 2018-Nov-14 00:00:00.0000 UT      
#Stop  time      : A.D. 2018-Dec-14 00:00:00.0000 UT      
#Step-size       : 60 minutes
#*******************************************************************************
#Target pole/equ : No model available
#Target radii    : (unavailable)                                                
#Center geodetic : 0.00000000,0.00000000,0.0000000 {E-lon(deg),Lat(deg),Alt(km)}
#Center cylindric: 0.00000000,0.00000000,0.0000000 {E-lon(deg),Dxy(km),Dz(km)}
#Center pole/equ : ICRF
#Center radii    : (undefined)                                                  
#Target primary  : Sun
#Vis. interferer : None
#Rel. light bend : Sun                             {source: TESS_MERGED}
#Rel. lght bnd GM: 1.3271E+11 km^3/s^2                                          
#Small-body perts: Yes                             {source: SB431-N16}
#Atmos refraction: NO (AIRLESS)
#RA format       : DEG
#Time format     : JD  
#EOP file        : eop.201208.p210301                                           
#EOP coverage    : DATA-BASED 1962-JAN-20 TO 2020-DEC-08. PREDICTS-> 2021-FEB-28
#Units conversion: 1 au= 149597870.700 km, c= 299792.458 km/s, 1 day= 86400.0 s 
#Table cut-offs 1: Elevation (-90.0deg=NO ),Airmass     n.a.    , Daylight (NO )
#Table cut-offs 2: Solar elongation (  0.0,180.0=NO ),Local Hour Angle( 0.0=NO )
#Table cut-offs 3: RA/DEC angular rate (     0.0=NO )                           
#*******************************************************************************
#Initial IAU76/J2000 heliocentric ecliptic osculating elements (au, days, deg.):
#  EPOCH=  2457250.5 ! 2015-Aug-16.00 (TDB)         Residual RMS= .098239       
#   EC= .8520679361328074   QR= 76.05698791331483   TP= 2479453.9818000919      
#   OM= 144.5486391335263   W=  311.3995101771422   IN= 11.92867818433043       
#  Equivalent ICRF heliocentric equatorial cartesian coordinates (au, au/d):
#   X= 4.864057043512999E+01  Y= 6.993820804836996E+01  Z= 1.097160056350969E+01
#  VX=-2.399980201939103E-03 VY= 5.981763579087654E-04 VZ= 4.438081424412539E-04
#Asteroid physical parameters (km, seconds, rotational period in hours):        
#   GM= n.a.                RAD= n.a.               ROTPER= 10.273              
#   H= 1.3                  G= .150                 B-V= n.a.                   
#                           ALBEDO= n.a.            STYP= n.a.                  
#**************************************************************************************
#Date_________JDUT     R.A._______(ICRF)_______DEC   APmag   S-brt    S-O-T /r    S-T-O
#**************************************************************************************
#$$SOE
2458455.750000000      56.942918964   7.615747015  20.625    n.a. 161.3735 /L   0.2082
2458455.791666667      56.942497037   7.615686536  20.625    n.a. 161.3410 /L   0.2086
2458455.833333333      56.942075266   7.615626157  20.625    n.a. 161.3083 /L   0.2090
2458455.875000000      56.941653651   7.615565878  20.625    n.a. 161.2757 /L   0.2093
2458455.916666667      56.941232193   7.615505698  20.625    n.a. 161.2430 /L   0.2097
2458455.958333333      56.940810893   7.615445616  20.625    n.a. 161.2103 /L   0.2100
2458456.000000000      56.940389752   7.615385632  20.625    n.a. 161.1775 /L   0.2104
2458456.041666667      56.939968770   7.615325746  20.625    n.a. 161.1447 /L   0.2107
2458456.083333333      56.939547948   7.615265956  20.626    n.a. 161.1118 /L   0.2111
2458456.125000000      56.939127287   7.615206264  20.626    n.a. 161.0790 /L   0.2114
2458456.166666667      56.938706787   7.615146667  20.626    n.a. 161.0460 /L   0.2118
2458456.208333333      56.938286450   7.615087166  20.626    n.a. 161.0130 /L   0.2122
2458456.250000000      56.937866276   7.615027760  20.626    n.a. 160.9800 /L   0.2125
2458456.291666667      56.937446265   7.614968449  20.626    n.a. 160.9470 /L   0.2129
2458456.333333333      56.937026420   7.614909232  20.626    n.a. 160.9139 /L   0.2132
2458456.375000000      56.936606739   7.614850110  20.626    n.a. 160.8807 /L   0.2136
2458456.416666667      56.936187225   7.614791080  20.626    n.a. 160.8476 /L   0.2139
2458456.458333333      56.935767877   7.614732144  20.626    n.a. 160.8144 /L   0.2143
2458456.500000000      56.935348697   7.614673301  20.626    n.a. 160.7811 /L   0.2147
2458456.541666667      56.934929685   7.614614549  20.626    n.a. 160.7478 /L   0.2150
2458456.583333333      56.934510843   7.614555890  20.626    n.a. 160.7145 /L   0.2154
2458456.625000000      56.934092170   7.614497322  20.626    n.a. 160.6811 /L   0.2157
2458456.666666667      56.933673667   7.614438845  20.626    n.a. 160.6477 /L   0.2161
2458456.708333333      56.933255336   7.614380459  20.626    n.a. 160.6143 /L   0.2165
2458456.750000000      56.932837177   7.614322163  20.627    n.a. 160.5808 /L   0.2168
2458456.791666667      56.932419190   7.614263957  20.627    n.a. 160.5473 /L   0.2172
2458456.833333333      56.932001377   7.614205841  20.627    n.a. 160.5137 /L   0.2175
2458456.875000000      56.931583739   7.614147814  20.627    n.a. 160.4802 /L   0.2179
2458456.916666667      56.931166275   7.614089875  20.627    n.a. 160.4465 /L   0.2183
2458456.958333333      56.930748987   7.614032025  20.627    n.a. 160.4129 /L   0.2186
2458457.000000000      56.930331876   7.613974263  20.627    n.a. 160.3792 /L   0.2190
2458457.041666667      56.929914942   7.613916589  20.627    n.a. 160.3454 /L   0.2194
2458457.083333333      56.929498186   7.613859002  20.627    n.a. 160.3117 /L   0.2197
2458457.125000000      56.929081609   7.613801502  20.627    n.a. 160.2779 /L   0.2201
2458457.166666667      56.928665211   7.613744089  20.627    n.a. 160.2440 /L   0.2204
2458457.208333333      56.928248994   7.613686762  20.627    n.a. 160.2102 /L   0.2208
2458457.250000000      56.927832958   7.613629521  20.627    n.a. 160.1763 /L   0.2212
2458457.291666667      56.927417104   7.613572366  20.627    n.a. 160.1423 /L   0.2215
2458457.333333333      56.927001433   7.613515296  20.627    n.a. 160.1083 /L   0.2219
2458457.375000000      56.926585945   7.613458310  20.628    n.a. 160.0743 /L   0.2223
2458457.416666667      56.926170642   7.613401409  20.628    n.a. 160.0403 /L   0.2226
2458457.458333333      56.925755523   7.613344593  20.628    n.a. 160.0062 /L   0.2230
2458457.500000000      56.925340591   7.613287860  20.628    n.a. 159.9721 /L   0.2234
2458457.541666667      56.924925846   7.613231210  20.628    n.a. 159.9380 /L   0.2237
2458457.583333333      56.924511288   7.613174644  20.628    n.a. 159.9038 /L   0.2241
2458457.625000000      56.924096919   7.613118160  20.628    n.a. 159.8696 /L   0.2245
2458457.666666667      56.923682739   7.613061759  20.628    n.a. 159.8353 /L   0.2248
2458457.708333333      56.923268750   7.613005440  20.628    n.a. 159.8011 /L   0.2252
2458457.750000000      56.922854951   7.612949203  20.628    n.a. 159.7667 /L   0.2256
2458457.791666667      56.922441345   7.612893047  20.628    n.a. 159.7324 /L   0.2259
2458457.833333333      56.922027931   7.612836972  20.628    n.a. 159.6980 /L   0.2263
2458457.875000000      56.921614711   7.612780977  20.628    n.a. 159.6636 /L   0.2267
2458457.916666667      56.921201685   7.612725063  20.628    n.a. 159.6292 /L   0.2271
2458457.958333333      56.920788855   7.612669229  20.628    n.a. 159.5947 /L   0.2274
2458458.000000000      56.920376221   7.612613475  20.629    n.a. 159.5602 /L   0.2278
2458458.041666667      56.919963785   7.612557799  20.629    n.a. 159.5257 /L   0.2282
2458458.083333333      56.919551546   7.612502203  20.629    n.a. 159.4912 /L   0.2285
2458458.125000000      56.919139507   7.612446685  20.629    n.a. 159.4566 /L   0.2289
2458458.166666667      56.918727668   7.612391246  20.629    n.a. 159.4219 /L   0.2293
2458458.208333333      56.918316030   7.612335884  20.629    n.a. 159.3873 /L   0.2296
2458458.250000000      56.917904594   7.612280599  20.629    n.a. 159.3526 /L   0.2300
2458458.291666667      56.917493361   7.612225392  20.629    n.a. 159.3179 /L   0.2304
2458458.333333333      56.917082332   7.612170261  20.629    n.a. 159.2832 /L   0.2308
2458458.375000000      56.916671508   7.612115207  20.629    n.a. 159.2484 /L   0.2311
2458458.416666667      56.916260890   7.612060228  20.629    n.a. 159.2136 /L   0.2315
2458458.458333333      56.915850479   7.612005325  20.629    n.a. 159.1788 /L   0.2319
2458458.500000000      56.915440276   7.611950497  20.629    n.a. 159.1439 /L   0.2322
2458458.541666667      56.915030283   7.611895744  20.629    n.a. 159.1091 /L   0.2326
2458458.583333333      56.914620499   7.611841065  20.629    n.a. 159.0741 /L   0.2330
2458458.625000000      56.914210927   7.611786461  20.630    n.a. 159.0392 /L   0.2334
2458458.666666667      56.913801567   7.611731929  20.630    n.a. 159.0042 /L   0.2337
2458458.708333333      56.913392420   7.611677471  20.630    n.a. 158.9692 /L   0.2341
2458458.750000000      56.912983488   7.611623086  20.630    n.a. 158.9342 /L   0.2345
2458458.791666667      56.912574772   7.611568773  20.630    n.a. 158.8992 /L   0.2349
2458458.833333333      56.912166272   7.611514532  20.630    n.a. 158.8641 /L   0.2352
2458458.875000000      56.911757991   7.611460363  20.630    n.a. 158.8290 /L   0.2356
2458458.916666667      56.911349923   7.611406263  20.630    n.a. 158.7939 /L   0.2360
